{
  "norad_id": 57825,
  "name": "STARLINK-30377",
  "history": [
    {
      "epoch": "2026-03-28T19:10:15.347136Z",
      "apogee_km": 483.956661778484,
      "perigee_km": 482.1604007883925,
      "latitude_deg": 2.313355988117165e-05,
      "longitude_deg": 12.23642027195327,
      "height_km": 482.84714733718374,
      "semi_major_axis_km": 6861.195531283438,
      "eccentricity": 0.0001309,
      "inclination_deg": 43.0034,
      "raan_deg": 126.0144,
      "arg_perigee_deg": 269.259,
      "mean_anomaly_deg": 90.8112,
      "mean_motion_rev_day": 15.27576849
    },
    {
      "epoch": "2026-03-29T09:17:39.936192Z",
      "apogee_km": 483.70887472856066,
      "perigee_km": 482.4162247333916,
      "latitude_deg": 2.001176321116009e-05,
      "longitude_deg": 156.48023125223256,
      "height_km": 482.8487309545776,
      "semi_major_axis_km": 6861.199549730976,
      "eccentricity": 9.42e-05,
      "inclination_deg": 43.0029,
      "raan_deg": 122.6907,
      "arg_perigee_deg": 269.1531,
      "mean_anomaly_deg": 90.9213,
      "mean_motion_rev_day": 15.27575507
    },
    {
      "epoch": "2026-03-30T10:24:10.942272Z",
      "apogee_km": 484.0451199641302,
      "perigee_km": 482.1757044941942,
      "latitude_deg": -1.4324744320789404e-05,
      "longitude_deg": 132.9132293622921,
      "height_km": 482.97613810138085,
      "semi_major_axis_km": 6861.2474122291615,
      "eccentricity": 0.00013623,
      "inclination_deg": 43.0001,
      "raan_deg": 116.7841,
      "arg_perigee_deg": 264.5326,
      "mean_anomaly_deg": 95.537,
      "mean_motion_rev_day": 15.27559523
    },
    {
      "epoch": "2026-03-30T18:14:57.649344Z",
      "apogee_km": 484.0401198696236,
      "perigee_km": 482.13311137789697,
      "latitude_deg": -2.894042051236975e-05,
      "longitude_deg": 13.048964955884086,
      "height_km": 482.885262896804,
      "semi_major_axis_km": 6861.2236156237595,
      "eccentricity": 0.00013897,
      "inclination_deg": 43.0021,
      "raan_deg": 114.9367,
      "arg_perigee_deg": 268.6948,
      "mean_anomaly_deg": 91.3744,
      "mean_motion_rev_day": 15.2756747
    }
  ]
}